[{"OBJECT_NAME":"STARLINK-4352","OBJECT_ID":"2022-077E","EPOCH":"2026-03-09T22:56:34.644192","MEAN_MOTION":15.01259069,"ECCENTRICITY":0.00014078,"INCLINATION":97.6021,"RA_OF_ASC_NODE":250.5114,"ARG_OF_PERICENTER":97.3037,"MEAN_ANOMALY":262.8347,"EPHEMERIS_TYPE":0,"CLASSIFICATION_TYPE":"U","NORAD_CAT_ID":53047,"ELEMENT_SET_NO":999,"REV_AT_EPOCH":20096,"BSTAR":-6.7954167e-5,"MEAN_MOTION_DOT":-9.31e-6,"MEAN_MOTION_DDOT":0},{"OBJECT_NAME":"ROBUSTA-3A (MEDITERRANEE)","OBJECT_ID":"2024-128J","EPOCH":"2026-03-09T17:32:19.735008","MEAN_MOTION":15.10076246,"ECCENTRICITY":0.0051919,"INCLINATION":61.9866,"RA_OF_ASC_NODE":199.5396,"ARG_OF_PERICENTER":108.1058,"MEAN_ANOMALY":252.5701,"EPHEMERIS_TYPE":0,"CLASSIFICATION_TYPE":"U","NORAD_CAT_ID":60243,"ELEMENT_SET_NO":999,"REV_AT_EPOCH":9139,"BSTAR":0.00068950735,"MEAN_MOTION_DOT":0.00011442,"MEAN_MOTION_DDOT":0}]
